{
  "type": "FeatureCollection",
  "features": [
    {
      "type": "Feature",
      "properties": {
        "norad_id": 30162,
        "name": "FENGYUN 1C DEB",
        "group": "fengyun-1c-debris",
        "lat": -56.2322897254046,
        "lon": -154.321808692724,
        "alt_km": 1175.078031779547,
        "timestamp": "2025-12-09T23:33:24.129017+00:00",
        "meta_object_name": "FENGYUN 1C DEB",
        "meta_object_id": "1999-025TT",
        "meta_epoch": "2025-12-09T10:02:10.325184",
        "meta_mean_motion": 13.53377362,
        "meta_eccentricity": 0.03136475,
        "meta_inclination": 99.488,
        "meta_ra_of_asc_node": 39.6214,
        "meta_arg_of_pericenter": 358.0175,
        "meta_mean_anomaly": 19.195,
        "meta_ephemeris_type": 0,
        "meta_classification_type": "U",
        "meta_norad_cat_id": 30162,
        "meta_element_set_no": 999,
        "meta_rev_at_epoch": 92616,
        "meta_bstar": 0.0035239944,
        "meta_mean_motion_dot": 3.187e-05,
        "meta_mean_motion_ddot": 0,
        "tle_line1": "1 30162U 99025TT  25343.41817506  .00003187  00000+0  35240-2 0  9990",
        "tle_line2": "2 30162  99.4880  39.6214 0313647 358.0175  19.1950 13.53377362926169"
      },
      "geometry": {
        "type": "Point",
        "coordinates": [
          -154.321808692724,
          -56.2322897254046
        ]
      }
    },
    {
      "type": "Feature",
      "properties": {
        "norad_id": 30163,
        "name": "FENGYUN 1C DEB",
        "group": "fengyun-1c-debris",
        "lat": 38.76699052230675,
        "lon": 92.39510504389419,
        "alt_km": 1372.4197989407476,
        "timestamp": "2025-12-09T23:33:24.129028+00:00",
        "meta_object_name": "FENGYUN 1C DEB",
        "meta_object_id": "1999-025TU",
        "meta_epoch": "2025-12-09T07:30:43.357248",
        "meta_mean_motion": 13.38764555,
        "meta_eccentricity": 0.0373335,
        "meta_inclination": 98.7007,
        "meta_ra_of_asc_node": 98.8842,
        "meta_arg_of_pericenter": 241.0822,
        "meta_mean_anomaly": 176.4761,
        "meta_ephemeris_type": 0,
        "meta_classification_type": "U",
        "meta_norad_cat_id": 30163,
        "meta_element_set_no": 999,
        "meta_rev_at_epoch": 91899,
        "meta_bstar": 0.0034719,
        "meta_mean_motion_dot": 2.741e-05,
        "meta_mean_motion_ddot": 0,
        "tle_line1": "1 30163U 99025TU  25343.31300182  .00002741  00000+0  34719-2 0  9992",
        "tle_line2": "2 30163  98.7007  98.8842 0373335 241.0822 176.4761 13.38764555918993"
      },
      "geometry": {
        "type": "Point",
        "coordinates": [
          92.39510504389419,
          38.76699052230675
        ]
      }
    },
    {
      "type": "Feature",
      "properties": {
        "norad_id": 30167,
        "name": "FENGYUN 1C DEB",
        "group": "fengyun-1c-debris",
        "lat": -22.463818906421967,
        "lon": 72.72615340686926,
        "alt_km": 837.8233299965123,
        "timestamp": "2025-12-09T23:33:24.129038+00:00",
        "meta_object_name": "FENGYUN 1C DEB",
        "meta_object_id": "1999-025TY",
        "meta_epoch": "2025-12-09T05:43:53.721408",
        "meta_mean_motion": 14.48515253,
        "meta_eccentricity": 0.0144089,
        "meta_inclination": 98.9677,
        "meta_ra_of_asc_node": 68.1942,
        "meta_arg_of_pericenter": 164.9137,
        "meta_mean_anomaly": 261.5116,
        "meta_ephemeris_type": 0,
        "meta_classification_type": "U",
        "meta_norad_cat_id": 30167,
        "meta_element_set_no": 999,
        "meta_rev_at_epoch": 99308,
        "meta_bstar": 0.00088286,
        "meta_mean_motion_dot": 3.725e-05,
        "meta_mean_motion_ddot": 0,
        "tle_line1": "1 30167U 99025TY  25343.23881622  .00003725  00000+0  88286-3 0  9992",
        "tle_line2": "2 30167  98.9677  68.1942 0144089 164.9137 261.5116 14.48515253993081"
      },
      "geometry": {
        "type": "Point",
        "coordinates": [
          72.72615340686926,
          -22.463818906421967
        ]
      }
    },
    {
      "type": "Feature",
      "properties": {
        "norad_id": 30168,
        "name": "FENGYUN 1C DEB",
        "group": "fengyun-1c-debris",
        "lat": 4.252024205090193,
        "lon": 56.12525335563057,
        "alt_km": 785.2159488032885,
        "timestamp": "2025-12-09T23:33:24.129048+00:00",
        "meta_object_name": "FENGYUN 1C DEB",
        "meta_object_id": "1999-025TZ",
        "meta_epoch": "2025-12-09T03:42:01.094976",
        "meta_mean_motion": 14.52762621,
        "meta_eccentricity": 0.01006558,
        "meta_inclination": 97.3898,
        "meta_ra_of_asc_node": 55.9487,
        "meta_arg_of_pericenter": 165.2127,
        "meta_mean_anomaly": 195.2054,
        "meta_ephemeris_type": 0,
        "meta_classification_type": "U",
        "meta_norad_cat_id": 30168,
        "meta_element_set_no": 999,
        "meta_rev_at_epoch": 98259,
        "meta_bstar": 0.0025990889,
        "meta_mean_motion_dot": 0.00011381,
        "meta_mean_motion_ddot": 0,
        "tle_line1": "1 30168U 99025TZ  25343.15417934  .00011381  00000+0  25991-2 0  9995",
        "tle_line2": "2 30168  97.3898  55.9487 0100655 165.2127 195.2054 14.52762621982598"
      },
      "geometry": {
        "type": "Point",
        "coordinates": [
          56.12525335563057,
          4.252024205090193
        ]
      }
    },
    {
      "type": "Feature",
      "properties": {
        "norad_id": 30169,
        "name": "FENGYUN 1C DEB",
        "group": "fengyun-1c-debris",
        "lat": 49.17727110208875,
        "lon": -116.79111297592122,
        "alt_km": 732.9274539155267,
        "timestamp": "2025-12-09T23:33:24.129059+00:00",
        "meta_object_name": "FENGYUN 1C DEB",
        "meta_object_id": "1999-025UA",
        "meta_epoch": "2025-12-09T03:27:24.414048",
        "meta_mean_motion": 14.57907578,
        "meta_eccentricity": 0.02135036,
        "meta_inclination": 98.3357,
        "meta_ra_of_asc_node": 52.5975,
        "meta_arg_of_pericenter": 238.2068,
        "meta_mean_anomaly": 181.1655,
        "meta_ephemeris_type": 0,
        "meta_classification_type": "U",
        "meta_norad_cat_id": 30169,
        "meta_element_set_no": 999,
        "meta_rev_at_epoch": 97671,
        "meta_bstar": 0.0032962669,
        "meta_mean_motion_dot": 0.00020707,
        "meta_mean_motion_ddot": 0,
        "tle_line1": "1 30169U 99025UA  25343.14403257  .00020707  00000+0  32963-2 0  9997",
        "tle_line2": "2 30169  98.3357  52.5975 0213503 238.2068 181.1655 14.57907578976712"
      },
      "geometry": {
        "type": "Point",
        "coordinates": [
          -116.79111297592122,
          49.17727110208875
        ]
      }
    },
    {
      "type": "Feature",
      "properties": {
        "norad_id": 30170,
        "name": "FENGYUN 1C DEB",
        "group": "fengyun-1c-debris",
        "lat": -6.384903213536074,
        "lon": -27.89771834273221,
        "alt_km": 878.0462833964439,
        "timestamp": "2025-12-09T23:33:24.129069+00:00",
        "meta_object_name": "FENGYUN 1C DEB",
        "meta_object_id": "1999-025UB",
        "meta_epoch": "2025-12-09T12:09:38.676960",
        "meta_mean_motion": 14.00301719,
        "meta_eccentricity": 0.00769404,
        "meta_inclination": 98.8486,
        "meta_ra_of_asc_node": 330.644,
        "meta_arg_of_pericenter": 283.7311,
        "meta_mean_anomaly": 196.7411,
        "meta_ephemeris_type": 0,
        "meta_classification_type": "U",
        "meta_norad_cat_id": 30170,
        "meta_element_set_no": 999,
        "meta_rev_at_epoch": 96370,
        "meta_bstar": 0.00080718785,
        "meta_mean_motion_dot": 1.182e-05,
        "meta_mean_motion_ddot": 0,
        "tle_line1": "1 30170U 99025UB  25343.50669765  .00001182  00000+0  80719-3 0  9996",
        "tle_line2": "2 30170  98.8486 330.6440 0076940 283.7311 196.7411 14.00301719963707"
      },
      "geometry": {
        "type": "Point",
        "coordinates": [
          -27.89771834273221,
          -6.384903213536074
        ]
      }
    },
    {
      "type": "Feature",
      "properties": {
        "norad_id": 30171,
        "name": "FENGYUN 1C DEB",
        "group": "fengyun-1c-debris",
        "lat": -66.82558941236026,
        "lon": 1.7332191119161686,
        "alt_km": 791.5537667666158,
        "timestamp": "2025-12-09T23:33:24.129080+00:00",
        "meta_object_name": "FENGYUN 1C DEB",
        "meta_object_id": "1999-025UC",
        "meta_epoch": "2025-12-09T13:45:41.854176",
        "meta_mean_motion": 13.96855263,
        "meta_eccentricity": 0.01845235,
        "meta_inclination": 98.398,
        "meta_ra_of_asc_node": 201.5475,
        "meta_arg_of_pericenter": 276.3114,
        "meta_mean_anomaly": 81.7064,
        "meta_ephemeris_type": 0,
        "meta_classification_type": "U",
        "meta_norad_cat_id": 30171,
        "meta_element_set_no": 999,
        "meta_rev_at_epoch": 96226,
        "meta_bstar": 0.00034408945,
        "meta_mean_motion_dot": 5.12e-06,
        "meta_mean_motion_ddot": 0,
        "tle_line1": "1 30171U 99025UC  25343.57340109  .00000512  00000+0  34409-3 0  9993",
        "tle_line2": "2 30171  98.3980 201.5475 0184523 276.3114  81.7064 13.96855263962261"
      },
      "geometry": {
        "type": "Point",
        "coordinates": [
          1.7332191119161686,
          -66.82558941236026
        ]
      }
    }
  ]
}